OBJECT_NAME,OBJECT_ID,EPOCH,MEAN_MOTION,ECCENTRICITY,INCLINATION,RA_OF_ASC_NODE,ARG_OF_PERICENTER,MEAN_ANOMALY,EPHEMERIS_TYPE,CLASSIFICATION_TYPE,NORAD_CAT_ID,ELEMENT_SET_NO,REV_AT_EPOCH,BSTAR,MEAN_MOTION_DOT,MEAN_MOTION_DDOT
GOMX-1,2013-066Q,2026-06-07T20:34:08.219712,14.69426675,.0130112,97.6491,359.9082,107.1807,254.3691,0,U,39430,999,66854,.40744E-3,.2697E-4,0
CUBEBUG-2 (LO-74),2013-066AA,2026-06-07T18:02:43.454112,14.93689124,.005931,97.8907,107.6906,59.6684,301.0383,0,U,39440,999,67558,.49259E-3,.5333E-4,0
NEE-02 KRYSAOR,2013-066AB,2026-06-07T18:51:47.171232,14.86579564,.0067684,97.8886,98.0684,100.2958,260.5898,0,U,39441,999,67480,.30113E-3,.2725E-4,0
FUNCUBE-1 (AO-73),2013-066AE,2026-06-07T10:39:41.135904,15.09375076,.0034678,97.8276,129.6877,234.9588,124.8385,0,U,39444,999,67819,.42956E-3,.689E-4,0
UWE-3,2013-066AG,2026-06-06T15:42:38.626272,14.96941234,.00490307,97.8693,113.6587,356.7161,3.3731,0,U,39446,999,67600,.43621535E-3,.5074E-4,0
SMDC ONE 2.4,2013-072H,2026-06-07T10:54:50.865696,15.17999672,.014389,120.4937,314.5128,8.6329,351.7177,0,U,39469,999,11635,.39312E-3,.10173E-3,0
COSMOS 2488 (RODNIK-S 7),2013-076A,2026-06-07T20:40:15.626208,12.42905534,.0020721,82.4832,174.5055,114.4990,245.8253,0,U,39483,999,56473,.14742E-3,.3E-6,0
COSMOS 2489 (RODNIK-S 8),2013-076B,2026-06-07T20:04:15.924288,12.42879299,.0022554,82.4869,175.8968,114.6508,245.6924,0,U,39484,999,56478,-.17341E-3,-.14E-6,0
COSMOS 2490 (RODNIK-S 9),2013-076C,2026-06-07T19:23:45.892320,12.42877768,.0022503,82.4815,173.9858,129.6535,230.6534,0,U,39485,999,56471,.11328E-3,.26E-6,0
KAZEOSAT 1,2014-024A,2026-06-07T19:02:40.811424,14.42076396,.0001493,98.3201,231.4740,74.2100,285.9255,0,U,39731,999,63720,.6572E-4,.173E-5,0
COSMOS 2496 (RODNIK-S 10),2014-028A,2026-06-07T20:18:32.575104,12.42878478,.0021225,82.4446,114.5818,98.0876,262.2613,0,U,39761,999,54635,.66541E-3,.102E-5,0
COSMOS 2497 (RODNIK-S 11),2014-028B,2026-06-07T21:39:02.011104,12.42893946,.0021822,82.4494,116.2329,93.2432,267.1145,0,U,39762,999,54636,.43482E-3,.7E-6,0
COSMOS 2498 (RODNIK-S 12),2014-028C,2026-06-07T19:11:47.883264,12.42980129,.002253,82.4454,114.7880,93.1224,267.2434,0,U,39763,999,54638,.65804E-3,.101E-5,0
HODOYOSHI-4,2014-033B,2026-06-07T19:43:51.847104,14.88110178,.0023303,97.5458,344.0971,340.7794,19.2542,0,U,40011,999,64741,.20517E-3,.1845E-4,0
UNISAT-6,2014-033C,2026-06-07T09:13:08.162400,14.88194150,.0046464,97.7873,311.2702,100.6516,259.9939,0,U,40012,999,64470,.40442E-3,.3749E-4,0
DEIMOS-2,2014-033D,2026-06-07T19:18:47.433888,14.93702458,.000205,97.5836,33.6227,60.7999,299.3426,0,U,40013,999,63632,.23448E-3,.2426E-4,0
BUGSAT-1 (TITA),2014-033E,2026-06-07T20:36:38.586816,15.15484612,.0027374,98.0419,250.8627,210.5403,149.4235,0,U,40014,999,65442,.29601E-3,.5579E-4,0
SAUDISAT 4,2014-033G,2026-06-07T15:36:57.432672,14.79532151,.0046205,97.7573,305.1161,104.0362,256.5993,0,U,40016,999,64466,.12584E-3,.907E-5,0
APRIZESAT 9,2014-033J,2026-06-07T15:17:41.864640,14.74202452,.0065063,97.9049,292.0700,230.2221,129.3247,0,U,40018,999,64215,.12323E-3,.788E-5,0
BRITE-CA1 (TORONTO),2014-033L,2026-06-07T07:43:14.807424,14.72663858,.0077511,97.9728,287.4322,309.1415,50.2921,0,U,40020,999,64076,.13667E-3,.858E-5,0
DUCHIFAT-1,2014-033M,2026-06-07T16:16:55.996032,15.62727135,.0004587,98.0456,216.5179,131.8907,228.2741,0,U,40021,999,65426,.1084E-2,.98159E-3,0
NANOSATC-BR1,2014-033Q,2026-06-07T14:23:33.373248,15.31152057,.0003389,98.0730,190.1402,190.3246,169.7924,0,U,40024,999,65251,.57076E-3,.17112E-3,0
